[{"OBJECT_NAME":"UNISAT-6","OBJECT_ID":"2014-033C","EPOCH":"2026-04-26T16:38:17.454912","MEAN_MOTION":14.87934437,"ECCENTRICITY":0.0044168,"INCLINATION":97.7813,"RA_OF_ASC_NODE":270.3413,"ARG_OF_PERICENTER":237.1283,"MEAN_ANOMALY":122.5679,"EPHEMERIS_TYPE":0,"CLASSIFICATION_TYPE":"U","NORAD_CAT_ID":40012,"ELEMENT_SET_NO":999,"REV_AT_EPOCH":63850,"BSTAR":0.00043119,"MEAN_MOTION_DOT":3.966e-5,"MEAN_MOTION_DDOT":0},{"OBJECT_NAME":"DUCHIFAT-1","OBJECT_ID":"2014-033M","EPOCH":"2026-04-26T16:52:24.211200","MEAN_MOTION":15.56025427,"ECCENTRICITY":0.0004213,"INCLINATION":98.0539,"RA_OF_ASC_NODE":169.0145,"ARG_OF_PERICENTER":233.3677,"MEAN_ANOMALY":126.7189,"EPHEMERIS_TYPE":0,"CLASSIFICATION_TYPE":"U","NORAD_CAT_ID":40021,"ELEMENT_SET_NO":999,"REV_AT_EPOCH":64772,"BSTAR":0.0011952,"MEAN_MOTION_DOT":0.0008387,"MEAN_MOTION_DDOT":0},{"OBJECT_NAME":"QB50P1","OBJECT_ID":"2014-033R","EPOCH":"2026-04-26T14:20:05.843904","MEAN_MOTION":15.17429808,"ECCENTRICITY":0.0010147,"INCLINATION":98.0989,"RA_OF_ASC_NODE":124.1565,"ARG_OF_PERICENTER":51.2969,"MEAN_ANOMALY":308.9169,"EPHEMERIS_TYPE":0,"CLASSIFICATION_TYPE":"U","NORAD_CAT_ID":40025,"ELEMENT_SET_NO":999,"REV_AT_EPOCH":64520,"BSTAR":0.0005198,"MEAN_MOTION_DOT":0.00010342,"MEAN_MOTION_DDOT":0},{"OBJECT_NAME":"LILACSAT-2","OBJECT_ID":"2015-049K","EPOCH":"2026-04-26T20:06:54.635904","MEAN_MOTION":15.49734152,"ECCENTRICITY":0.0008839,"INCLINATION":97.4731,"RA_OF_ASC_NODE":151.7755,"ARG_OF_PERICENTER":84.3425,"MEAN_ANOMALY":275.8833,"EPHEMERIS_TYPE":0,"CLASSIFICATION_TYPE":"U","NORAD_CAT_ID":40908,"ELEMENT_SET_NO":999,"REV_AT_EPOCH":58779,"BSTAR":0.00038963,"MEAN_MOTION_DOT":0.00021596,"MEAN_MOTION_DDOT":0},{"OBJECT_NAME":"FOX-1A (AO-85)","OBJECT_ID":"2015-058D","EPOCH":"2026-04-26T07:07:52.639392","MEAN_MOTION":14.90641989,"ECCENTRICITY":0.0128561,"INCLINATION":64.7746,"RA_OF_ASC_NODE":80.2,"ARG_OF_PERICENTER":76.9268,"MEAN_ANOMALY":284.6158,"EPHEMERIS_TYPE":0,"CLASSIFICATION_TYPE":"U","NORAD_CAT_ID":40967,"ELEMENT_SET_NO":999,"REV_AT_EPOCH":10583,"BSTAR":0.00035850003,"MEAN_MOTION_DOT":3.95e-5,"MEAN_MOTION_DDOT":0},{"OBJECT_NAME":"CAS-2T & KS-1Q","OBJECT_ID":"2016-066G","EPOCH":"2026-04-26T20:18:38.052864","MEAN_MOTION":14.4456795,"ECCENTRICITY":0.0340958,"INCLINATION":98.3831,"RA_OF_ASC_NODE":193.1613,"ARG_OF_PERICENTER":285.4039,"MEAN_ANOMALY":70.9731,"EPHEMERIS_TYPE":0,"CLASSIFICATION_TYPE":"U","NORAD_CAT_ID":41847,"ELEMENT_SET_NO":999,"REV_AT_EPOCH":49738,"BSTAR":9.6566e-5,"MEAN_MOTION_DOT":6.14e-6,"MEAN_MOTION_DDOT":0},{"OBJECT_NAME":"RADFXSAT (FOX-1B)","OBJECT_ID":"2017-073E","EPOCH":"2026-04-26T01:36:05.803776","MEAN_MOTION":15.11750407,"ECCENTRICITY":0.01540554,"INCLINATION":97.4782,"RA_OF_ASC_NODE":344.3695,"ARG_OF_PERICENTER":148.0001,"MEAN_ANOMALY":213.07,"EPHEMERIS_TYPE":0,"CLASSIFICATION_TYPE":"U","NORAD_CAT_ID":43017,"ELEMENT_SET_NO":999,"REV_AT_EPOCH":45751,"BSTAR":0.00046442261,"MEAN_MOTION_DOT":0.00010507,"MEAN_MOTION_DDOT":0},{"OBJECT_NAME":"DIWATA-2B","OBJECT_ID":"2018-084H","EPOCH":"2026-04-26T19:34:50.147616","MEAN_MOTION":15.00193803,"ECCENTRICITY":0.0013232,"INCLINATION":98.1069,"RA_OF_ASC_NODE":310.8381,"ARG_OF_PERICENTER":346.1105,"MEAN_ANOMALY":13.9751,"EPHEMERIS_TYPE":0,"CLASSIFICATION_TYPE":"U","NORAD_CAT_ID":43678,"ELEMENT_SET_NO":999,"REV_AT_EPOCH":40851,"BSTAR":0.00022381,"MEAN_MOTION_DOT":2.736e-5,"MEAN_MOTION_DDOT":0},{"OBJECT_NAME":"ES'HAIL 2","OBJECT_ID":"2018-090A","EPOCH":"2026-04-26T13:41:25.247040","MEAN_MOTION":1.0027461,"ECCENTRICITY":0.0001354,"INCLINATION":0.0402,"RA_OF_ASC_NODE":76.1329,"ARG_OF_PERICENTER":345.0735,"MEAN_ANOMALY":24.5116,"EPHEMERIS_TYPE":0,"CLASSIFICATION_TYPE":"U","NORAD_CAT_ID":43700,"ELEMENT_SET_NO":999,"REV_AT_EPOCH":2715,"BSTAR":0,"MEAN_MOTION_DOT":1.32e-6,"MEAN_MOTION_DDOT":0},{"OBJECT_NAME":"FOX-1CLIFF (AO-95)","OBJECT_ID":"2018-099N","EPOCH":"2026-04-26T16:08:57.208704","MEAN_MOTION":15.25572159,"ECCENTRICITY":0.0009715,"INCLINATION":97.4424,"RA_OF_ASC_NODE":177.1444,"ARG_OF_PERICENTER":160.5645,"MEAN_ANOMALY":199.5966,"EPHEMERIS_TYPE":0,"CLASSIFICATION_TYPE":"U","NORAD_CAT_ID":43770,"ELEMENT_SET_NO":999,"REV_AT_EPOCH":40536,"BSTAR":0.00054861,"MEAN_MOTION_DOT":0.00013884,"MEAN_MOTION_DDOT":0},{"OBJECT_NAME":"ITASAT","OBJECT_ID":"2018-099AE","EPOCH":"2026-04-26T16:41:16.736640","MEAN_MOTION":15.18376536,"ECCENTRICITY":0.0013367,"INCLINATION":97.408,"RA_OF_ASC_NODE":169.2488,"ARG_OF_PERICENTER":165.7366,"MEAN_ANOMALY":194.4248,"EPHEMERIS_TYPE":0,"CLASSIFICATION_TYPE":"U","NORAD_CAT_ID":43786,"ELEMENT_SET_NO":999,"REV_AT_EPOCH":40509,"BSTAR":0.00042796,"MEAN_MOTION_DOT":8.752e-5,"MEAN_MOTION_DDOT":0},{"OBJECT_NAME":"JY1SAT (JO-97)","OBJECT_ID":"2018-099AX","EPOCH":"2026-04-26T17:15:00.859680","MEAN_MOTION":15.3199491,"ECCENTRICITY":0.0007434,"INCLINATION":97.4173,"RA_OF_ASC_NODE":179.4308,"ARG_OF_PERICENTER":97.7748,"MEAN_ANOMALY":262.4337,"EPHEMERIS_TYPE":0,"CLASSIFICATION_TYPE":"U","NORAD_CAT_ID":43803,"ELEMENT_SET_NO":999,"REV_AT_EPOCH":40574,"BSTAR":0.00067729,"MEAN_MOTION_DOT":0.00020895,"MEAN_MOTION_DDOT":0},{"OBJECT_NAME":"UWE-4","OBJECT_ID":"2018-111E","EPOCH":"2026-04-26T18:33:50.615136","MEAN_MOTION":15.4299728,"ECCENTRICITY":0.000991,"INCLINATION":97.5856,"RA_OF_ASC_NODE":42.9263,"ARG_OF_PERICENTER":136.2962,"MEAN_ANOMALY":223.9071,"EPHEMERIS_TYPE":0,"CLASSIFICATION_TYPE":"U","NORAD_CAT_ID":43880,"ELEMENT_SET_NO":999,"REV_AT_EPOCH":40284,"BSTAR":0.00083449,"MEAN_MOTION_DOT":0.00036873,"MEAN_MOTION_DDOT":0},{"OBJECT_NAME":"TIANYAN 01","OBJECT_ID":"2019-093C","EPOCH":"2026-04-26T19:38:18.305952","MEAN_MOTION":14.86432544,"ECCENTRICITY":0.001212,"INCLINATION":97.7542,"RA_OF_ASC_NODE":190.3007,"ARG_OF_PERICENTER":254.8512,"MEAN_ANOMALY":105.1363,"EPHEMERIS_TYPE":0,"CLASSIFICATION_TYPE":"U","NORAD_CAT_ID":44881,"ELEMENT_SET_NO":999,"REV_AT_EPOCH":34378,"BSTAR":0.00011325,"MEAN_MOTION_DOT":9.48e-6,"MEAN_MOTION_DDOT":0},{"OBJECT_NAME":"RS-44 & BREEZE-KM R/B","OBJECT_ID":"2019-096E","EPOCH":"2026-04-26T19:06:49.753152","MEAN_MOTION":12.79747955,"ECCENTRICITY":0.0216361,"INCLINATION":82.526,"RA_OF_ASC_NODE":13.8554,"ARG_OF_PERICENTER":264.5465,"MEAN_ANOMALY":93.0923,"EPHEMERIS_TYPE":0,"CLASSIFICATION_TYPE":"U","NORAD_CAT_ID":44909,"ELEMENT_SET_NO":999,"REV_AT_EPOCH":29577,"BSTAR":-3.2327e-5,"MEAN_MOTION_DOT":1.0e-8,"MEAN_MOTION_DDOT":0},{"OBJECT_NAME":"SALSAT","OBJECT_ID":"2020-068K","EPOCH":"2026-04-26T11:00:12.410208","MEAN_MOTION":15.29015639,"ECCENTRICITY":0.00115423,"INCLINATION":97.8864,"RA_OF_ASC_NODE":116.4064,"ARG_OF_PERICENTER":119.6725,"MEAN_ANOMALY":240.5665,"EPHEMERIS_TYPE":0,"CLASSIFICATION_TYPE":"U","NORAD_CAT_ID":46495,"ELEMENT_SET_NO":999,"REV_AT_EPOCH":30745,"BSTAR":0.00034104261,"MEAN_MOTION_DOT":9.547e-5,"MEAN_MOTION_DDOT":0},{"OBJECT_NAME":"XW-3 (CAS-9)","OBJECT_ID":"2021-131B","EPOCH":"2026-04-26T19:44:08.610432","MEAN_MOTION":14.41305902,"ECCENTRICITY":0.000296,"INCLINATION":98.4945,"RA_OF_ASC_NODE":209.4984,"ARG_OF_PERICENTER":244.9863,"MEAN_ANOMALY":115.1018,"EPHEMERIS_TYPE":0,"CLASSIFICATION_TYPE":"U","NORAD_CAT_ID":50466,"ELEMENT_SET_NO":999,"REV_AT_EPOCH":22771,"BSTAR":0.00015665,"MEAN_MOTION_DOT":4.62e-6,"MEAN_MOTION_DDOT":0}]
