UNISAT-6                
1 40012U 14033C   26116.69325758  .00003966  00000+0  43119-3 0  9993
2 40012  97.7813 270.3413 0044168 237.1283 122.5679 14.87934437638507
DUCHIFAT-1              
1 40021U 14033M   26116.70305800  .00083870  00000+0  11952-2 0  9992
2 40021  98.0539 169.0145 0004213 233.3677 126.7189 15.56025427647727
QB50P1                  
1 40025U 14033R   26116.59728986  .00010342  00000+0  51980-3 0  9997
2 40025  98.0989 124.1565 0010147  51.2969 308.9169 15.17429808645203
LILACSAT-2              
1 40908U 15049K   26116.83813236  .00021596  00000+0  38963-3 0  9994
2 40908  97.4731 151.7755 0008839  84.3425 275.8833 15.49734152587792
FOX-1A (AO-85)          
1 40967U 15058D   26116.29713703  .00003950  00000+0  35850-3 0  9993
2 40967  64.7746  80.2000 0128561  76.9268 284.6158 14.90641989105835
CAS-2T & KS-1Q          
1 41847U 16066G   26116.84627376  .00000614  00000+0  96566-4 0  9998
2 41847  98.3831 193.1613 0340958 285.4039  70.9731 14.44567950497385
RADFXSAT (FOX-1B)       
1 43017U 17073E   26116.06673384  .00010507  00000+0  46442-3 0  9991
2 43017  97.4782 344.3695 0154055 148.0001 213.0700 15.11750407457518
DIWATA-2B               
1 43678U 18084H   26116.81585819  .00002736  00000+0  22381-3 0  9996
2 43678  98.1069 310.8381 0013232 346.1105  13.9751 15.00193803408512
ES'HAIL 2               
1 43700U 18090A   26116.57043110  .00000132  00000+0  00000+0 0  9993
2 43700   0.0402  76.1329 0001354 345.0735  24.5116  1.00274610 27155
FOX-1CLIFF (AO-95)      
1 43770U 18099N   26116.67288436  .00013884  00000+0  54861-3 0  9998
2 43770  97.4424 177.1444 0009715 160.5645 199.5966 15.25572159405365
ITASAT                  
1 43786U 18099AE  26116.69533260  .00008752  00000+0  42796-3 0  9997
2 43786  97.4080 169.2488 0013367 165.7366 194.4248 15.18376536405095
JY1SAT (JO-97)          
1 43803U 18099AX  26116.71875995  .00020895  00000+0  67729-3 0  9999
2 43803  97.4173 179.4308 0007434  97.7748 262.4337 15.31994910405742
UWE-4                   
1 43880U 18111E   26116.77350249  .00036873  00000+0  83449-3 0  9995
2 43880  97.5856  42.9263 0009910 136.2962 223.9071 15.42997280402848
TIANYAN 01              
1 44881U 19093C   26116.81826743  .00000948  00000+0  11325-3 0  9997
2 44881  97.7542 190.3007 0012120 254.8512 105.1363 14.86432544343789
RS-44 & BREEZE-KM R/B   
1 44909U 19096E   26116.79640918  .00000001  00000+0 -32327-4 0  9993
2 44909  82.5260  13.8554 0216361 264.5465  93.0923 12.79747955295770
SALSAT                  
1 46495U 20068K   26116.45847697  .00009547  00000+0  34104-3 0  9999
2 46495  97.8864 116.4064 0011542 119.6725 240.5665 15.29015639307456
XW-3 (CAS-9)            
1 50466U 21131B   26116.82232188  .00000462  00000+0  15665-3 0  9996
2 50466  98.4945 209.4984 0002960 244.9863 115.1018 14.41305902227716
